STARLINK-3961           
1 52637U 22052AR  26182.16670139  .01285196  00000+0  54838-1 0  9996
2 52637  53.1594 109.2528 0001385 108.3894 149.9527 15.19772412  5831
STARLINK-3941           
1 52638U 22052AS  26182.16670139  .00076247  00000+0  33138-2 0  9992
2 52638  53.1609 119.0111 0001151  93.6063 154.2689 15.21622816  5788
STARLINK-3968           
1 52639U 22052AT  26182.06801330  .00003948  00000+0  26612-3 0  9999
2 52639  53.1596 109.9667 0001398  91.5574 268.5578 15.08820236229050
STARLINK-3977           
1 52640U 22052AU  26182.15200841  .00070601  00000+0  43406-2 0  9990
2 52640  53.1613 109.6122 0001298  82.1671 277.9468 15.09419313228252
STARLINK-3991           
1 52641U 22052AV  26182.16670139  .01209852  00000+0  46212-1 0  9993
2 52641  53.1595 109.2665 0001021  73.0230 258.1211 15.23270343  5797
STARLINK-3971           
1 52642U 22052AW  26182.07536447 -.00000014  00000+0  17195-4 0  9997
2 52642  53.1612 109.9350 0001586  92.1485 267.9688 15.08838714228244
STARLINK-3963           
1 52643U 22052AX  26182.16670139  .01307860  00000+0  56749-1 0  9999
2 52643  53.1605 109.2603 0001073  63.9266 330.6165 15.19140709  5833
STARLINK-3985           
1 52644U 22052AY  26182.07136866  .00039606  00000+0  24717-2 0  9994
2 52644  53.1612 109.9503 0001206 298.2512  61.8357 15.09148190228242
STARLINK-3973           
1 52645U 22052AZ  26182.16670139  .00110746  00000+0  46692-2 0  9992
2 52645  53.1611 109.0040 0002126  81.0909 100.3850 15.22448825  5736
STARLINK-3832           
1 52646U 22052BA  26181.00377832  .00063388  00000+0  39052-2 0  9990
2 52646  53.1600 114.7826 0002803  45.4756 314.6464 15.09395947228094
STARLINK-3854           
1 52648U 22052BC  26182.05696863  .00000300  00000+0  36975-4 0  9994
2 52648  53.1599 110.0164 0001301  91.9737 268.1403 15.08835130228249
STARLINK-3868           
1 52649U 22052BD  26182.16670139  .01286326  00000+0  55257-1 0  9991
2 52649  53.1611 109.1156 0002011  84.0103  68.1745 15.19538990  5734
STARLINK-3891           
1 52650U 22052BE  26182.06526149  .00000327  00000+0  38648-4 0  9995
2 52650  53.1609 100.0873 0001391  88.5406 271.5745 15.08832880228396
STARLINK-4004           
1 52656U 22053A   26181.49902546  .00000091  00000+0  23826-4 0  9997
2 52656  53.1606   7.5335 0000896  98.5351 261.5742 15.08834605228148
STARLINK-4084           
1 52657U 22053B   26182.16670139  .01183495  00000+0  44257-1 0  9992
2 52657  53.1588   4.3014 0001747  82.6371  26.4891 15.24055852  5726
STARLINK-4082           
1 52658U 22053C   26180.90559353  .00005562  00000+0  36762-3 0  9998
2 52658  53.1606  10.1930 0001254  97.8978 262.2155 15.08806735228179
STARLINK-3960           
1 52659U 22053D   26182.02798468  .00001342  00000+0  10240-3 0  9991
2 52659  53.1605   5.0978 0001148  96.1389 263.9734 15.08827822228333
STARLINK-4081           
1 52660U 22053E   26182.16670139  .01261381  00000+0  50789-1 0  9994
2 52660  53.1608   4.1744 0001463 113.9713 121.0615 15.21344788  5692
STARLINK-4044           
1 52662U 22053G   26180.82094888  .00000162  00000+0  28305-4 0  9997
2 52662  53.1602  10.5733 0001400  87.6025 272.5126 15.08830895227971
STARLINK-4037           
1 52663U 22053H   26181.87711058  .00000258  00000+0  34314-4 0  9992
2 52663  53.1623   5.8304 0001300  87.7978 272.3162 15.08830477228136
STARLINK-4070           
1 52664U 22053J   26180.95711093 -.00000264  00000+0  15114-5 0  9996
2 52664  53.1604   9.9600 0001170  85.3330 274.7795 15.08828332227999
STARLINK-4064           
1 52665U 22053K   26182.19726564  .00000545  00000+0  52345-4 0  9991
2 52665  53.1611   4.3877 0001250  91.3779 268.7356 15.08837606228188
STARLINK-4079           
1 52666U 22053L   26180.90922236  .00000655  00000+0  59285-4 0  9995
2 52666  53.1609   9.7919 0001236  98.1386 261.9746 15.08829595227999
STARLINK-4076           
1 52667U 22053M   26181.53118971 -.00000061  00000+0  14278-4 0  9994
2 52667  53.1615   7.3813 0001281  88.5083 271.6055 15.08832699228082
STARLINK-4067           
1 52668U 22053N   26182.16670139  .01121170  00000+0  44416-1 0  9993
2 52668  53.1591   4.0836 0001253  64.7995 337.2258 15.22250934  5687
STARLINK-3972           
1 52669U 22053P   26180.79150820  .00000322  00000+0  38357-4 0  9995
2 52669  53.1611  10.7066 0001300  88.0505 272.0635 15.08837322227967
STARLINK-4075           
1 52670U 22053Q   26181.93967882  .00000977  00000+0  79463-4 0  9997
2 52670  53.1613   5.6130 0001240  87.9132 272.2002 15.08827944228143
STARLINK-4071           
1 52671U 22053R   26181.51646748  .00000944  00000+0  77403-4 0  9993
2 52671  53.1609   7.4467 0001259  89.4666 270.6470 15.08837683228075
STARLINK-4073           
1 52672U 22053S   26180.79886781  .00000047  00000+0  21078-4 0  9997
2 52672  53.1610  10.6732 0001295  89.5963 270.5177 15.08834646227966
STARLINK-3976           
1 52673U 22053T   26181.50911440  .00000141  00000+0  26980-4 0  9991
2 52673  53.1615   7.4806 0001176  88.8685 271.2441 15.08829050228077
