OBJECT_NAME,OBJECT_ID,EPOCH,MEAN_MOTION,ECCENTRICITY,INCLINATION,RA_OF_ASC_NODE,ARG_OF_PERICENTER,MEAN_ANOMALY,EPHEMERIS_TYPE,CLASSIFICATION_TYPE,NORAD_CAT_ID,ELEMENT_SET_NO,REV_AT_EPOCH,BSTAR,MEAN_MOTION_DOT,MEAN_MOTION_DDOT
STARLINK-3961,2022-052AR,2026-07-01T04:00:03.000096,15.19772412,.0001385,53.1594,109.2528,108.3894,149.9527,0,U,52637,999,583,.54838E-1,.1285196E-1,0
STARLINK-3941,2022-052AS,2026-07-01T04:00:03.000096,15.21622816,.0001151,53.1609,119.0111,93.6063,154.2689,0,U,52638,999,578,.33138E-2,.76247E-3,0
STARLINK-3968,2022-052AT,2026-07-01T01:37:56.349120,15.08820236,.0001398,53.1596,109.9667,91.5574,268.5578,0,U,52639,999,22905,.26612E-3,.3948E-4,0
STARLINK-3977,2022-052AU,2026-07-01T03:38:53.526624,15.09419313,.0001298,53.1613,109.6122,82.1671,277.9468,0,U,52640,999,22825,.43406E-2,.70601E-3,0
STARLINK-3991,2022-052AV,2026-07-01T04:00:03.000096,15.23270343,.0001021,53.1595,109.2665,73.0230,258.1211,0,U,52641,999,579,.46212E-1,.1209852E-1,0
STARLINK-3971,2022-052AW,2026-07-01T01:48:31.490208,15.08838714,.0001586,53.1612,109.9350,92.1485,267.9688,0,U,52642,999,22824,.17195E-4,-.14E-6,0
STARLINK-3963,2022-052AX,2026-07-01T04:00:03.000096,15.19140709,.0001073,53.1605,109.2603,63.9266,330.6165,0,U,52643,999,583,.56749E-1,.130786E-1,0
STARLINK-3985,2022-052AY,2026-07-01T01:42:46.252224,15.09148190,.0001206,53.1612,109.9503,298.2512,61.8357,0,U,52644,999,22824,.24717E-2,.39606E-3,0
STARLINK-3973,2022-052AZ,2026-07-01T04:00:03.000096,15.22448825,.0002126,53.1611,109.0040,81.0909,100.3850,0,U,52645,999,573,.46692E-2,.110746E-2,0
STARLINK-3832,2022-052BA,2026-06-30T00:05:26.446848,15.09395947,.00028038,53.1600,114.7826,45.4756,314.6464,0,U,52646,999,22809,.3905216E-2,.63388E-3,0
STARLINK-3854,2022-052BC,2026-07-01T01:22:02.089632,15.08835130,.0001301,53.1599,110.0164,91.9737,268.1403,0,U,52648,999,22824,.36975E-4,.3E-5,0
STARLINK-3868,2022-052BD,2026-07-01T04:00:03.000096,15.19538990,.0002011,53.1611,109.1156,84.0103,68.1745,0,U,52649,999,573,.55257E-1,.1286326E-1,0
STARLINK-3891,2022-052BE,2026-07-01T01:33:58.592736,15.08832880,.0001391,53.1609,100.0873,88.5406,271.5745,0,U,52650,999,22839,.38648E-4,.327E-5,0
STARLINK-4004,2022-053A,2026-06-30T11:58:35.799744,15.08834605,.00008962,53.1606,7.5335,98.5351,261.5742,0,U,52656,999,22814,.23825936E-4,.91E-6,0
STARLINK-4084,2022-053B,2026-07-01T04:00:03.000096,15.24055852,.0001747,53.1588,4.3014,82.6371,26.4891,0,U,52657,999,572,.44257E-1,.1183495E-1,0
STARLINK-4082,2022-053C,2026-06-29T21:44:03.280992,15.08806735,.00012547,53.1606,10.1930,97.8978,262.2155,0,U,52658,999,22817,.36761666E-3,.5562E-4,0
STARLINK-3960,2022-053D,2026-07-01T00:40:17.876352,15.08827822,.0001148,53.1605,5.0978,96.1389,263.9734,0,U,52659,999,22833,.1024E-3,.1342E-4,0
STARLINK-4081,2022-053E,2026-07-01T04:00:03.000096,15.21344788,.0001463,53.1608,4.1744,113.9713,121.0615,0,U,52660,999,569,.50789E-1,.1261381E-1,0
STARLINK-4044,2022-053G,2026-06-29T19:42:09.983232,15.08830895,.00014009,53.1602,10.5733,87.6025,272.5126,0,U,52662,999,22797,.28304719E-4,.162E-5,0
STARLINK-4037,2022-053H,2026-06-30T21:03:02.354112,15.08830477,.00013,53.1623,5.8304,87.7978,272.3162,0,U,52663,999,22813,.34314E-4,.258E-5,0
STARLINK-4070,2022-053J,2026-06-29T22:58:14.384352,15.08828332,.00011701,53.1604,9.9600,85.3330,274.7795,0,U,52664,999,22799,.1511359E-5,-.264E-5,0
STARLINK-4064,2022-053K,2026-07-01T04:44:03.751296,15.08837606,.000125,53.1611,4.3877,91.3779,268.7356,0,U,52665,999,22818,.52345E-4,.545E-5,0
STARLINK-4079,2022-053L,2026-06-29T21:49:16.811904,15.08829595,.0001236,53.1609,9.7919,98.1386,261.9746,0,U,52666,999,22799,.59285119E-4,.655E-5,0
STARLINK-4076,2022-053M,2026-06-30T12:44:54.790944,15.08832699,.0001281,53.1615,7.3813,88.5083,271.6055,0,U,52667,999,22808,.14278374E-4,-.61E-6,0
STARLINK-4067,2022-053N,2026-07-01T04:00:03.000096,15.22250934,.0001253,53.1591,4.0836,64.7995,337.2258,0,U,52668,999,568,.44416E-1,.112117E-1,0
STARLINK-3972,2022-053P,2026-06-29T18:59:46.308480,15.08837322,.00013002,53.1611,10.7066,88.0505,272.0635,0,U,52669,999,22796,.38357435E-4,.322E-5,0
STARLINK-4075,2022-053Q,2026-06-30T22:33:08.250048,15.08827944,.000124,53.1613,5.6130,87.9132,272.2002,0,U,52670,999,22814,.79463E-4,.977E-5,0
STARLINK-4071,2022-053R,2026-06-30T12:23:42.790272,15.08837683,.00012592,53.1609,7.4467,89.4666,270.6470,0,U,52671,999,22807,.77402836E-4,.944E-5,0
STARLINK-4073,2022-053S,2026-06-29T19:10:22.178784,15.08834646,.00012953,53.1610,10.6732,89.5963,270.5177,0,U,52672,999,22796,.2107791E-4,.47E-6,0
STARLINK-3976,2022-053T,2026-06-30T12:13:07.484160,15.08829050,.00011761,53.1615,7.4806,88.8685,271.2441,0,U,52673,999,22807,.26980142E-4,.141E-5,0
